{
  "norad_id": 44506,
  "name": "NAVSTAR 78 (USA 293)",
  "history": [
    {
      "epoch": "2026-03-27T15:53:36.359232Z",
      "apogee_km": 20337.33302189225,
      "perigee_km": 20026.231376329226,
      "latitude_deg": -17.179695001184086,
      "longitude_deg": 103.06684665171656,
      "height_km": 20030.4647733889,
      "semi_major_axis_km": 26559.919199110736,
      "eccentricity": 0.0058566,
      "inclination_deg": 55.6735,
      "raan_deg": 334.3842,
      "arg_perigee_deg": 197.7684,
      "mean_anomaly_deg": 3.1076,
      "mean_motion_rev_day": 2.00568459
    }
  ]
}